GLOBALSTAR M063 [+]     
1 26081U 00008A   24046.92653035 -.00000067  00000+0  23318-3 0  9997
2 26081  51.9975 314.8227 0005152  95.7391 344.7868 11.86151361 99752
GLOBALSTAR M062 [-]     
1 26082U 00008B   24046.86456149 -.00000106  00000+0 -58013-4 0  9994
2 26082  51.9848  88.8058 0007542 151.3082  19.8045 12.43428132435997
GLOBALSTAR M060 [-]     
1 26083U 00008C   24046.95816981  .00000107  00000+0  19701-2 0  9997
2 26083  52.0050 339.6114 0002847 212.5831 223.5769 12.17627341 93014
GLOBALSTAR M064 [-]     
1 26084U 00008D   24046.69885047 -.00000086  00000+0 -37332-4 0  9998
2 26084  52.0036  59.9944 0001616 192.9588 167.1203 11.88515571109130
GLOBALSTAR M065 [+]     
1 31571U 07020A   24046.90643605 -.00000082  00000+0  11999-3 0  9997
2 31571  51.9878 269.3374 0009685 311.4365 153.8226 12.61962422771885
GLOBALSTAR M069 [+]     
1 31573U 07020C   24046.75128565 -.00000076  00000+0  15412-3 0  9992
2 31573  51.9926 225.7916 0001790  95.8831 277.2328 12.62266480772998
GLOBALSTAR M072 [+]     
1 31574U 07020D   24046.91950382 -.00000089  00000+0  81330-4 0  9998
2 31574  52.0104 321.1084 0000855  42.1443  35.4097 12.62267364771281
GLOBALSTAR M071 [P]     
1 31576U 07020F   24046.77789628 -.00000087  00000+0  93870-4 0  9997
2 31576  52.0037 230.7808 0002124 103.3306 270.3340 12.62267366434184
